STARLINK-31021          
1 58518U 23191L   26068.44888954  .00000649  00000+0  33885-4 0  9994
2 58518  43.0000 104.8427 0001407 267.8000  92.2690 15.26741054125435
VSP RF A1               
1 59135U 24043AP  26066.03073316  .00000577  00000+0  25199-4 0  9997
2 59135  97.5247 201.5379 0009431 234.6315 125.4042 15.26179596111403
